{
    "links": {
        "self": "http://www.neowsapp.com/rest/v1/neo/3698479?api_key=iIulBulltgU6a56xZRHN4H3l9WmuAYTsLGpBGhQ2"
    },
    "id": "3698479",
    "neo_reference_id": "3698479",
    "name": "(2014 HF196)",
    "designation": "2014 HF196",
    "nasa_jpl_url": "http://ssd.jpl.nasa.gov/sbdb.cgi?sstr=3698479",
    "absolute_magnitude_h": 27.0,
    "estimated_diameter": {
        "kilometers": {
            "estimated_diameter_min": 0.0105816886,
            "estimated_diameter_max": 0.023661375
        },
        "meters": {
            "estimated_diameter_min": 10.5816885933,
            "estimated_diameter_max": 23.6613750114
        },
        "miles": {
            "estimated_diameter_min": 0.0065751544,
            "estimated_diameter_max": 0.0147024923
        },
        "feet": {
            "estimated_diameter_min": 34.7168272045,
            "estimated_diameter_max": 77.6291855923
        }
    },
    "is_potentially_hazardous_asteroid": false,
    "close_approach_data": [
        {
            "close_approach_date": "2014-04-27",
            "close_approach_date_full": "2014-Apr-27 08:14",
            "epoch_date_close_approach": 1398586440000,
            "relative_velocity": {
                "kilometers_per_second": "5.1200861808",
                "kilometers_per_hour": "18432.3102508193",
                "miles_per_hour": "11453.1207777938"
            },
            "miss_distance": {
                "astronomical": "0.1499885858",
                "lunar": "58.3455598762",
                "kilometers": "22437972.959992246",
                "miles": "13942309.8838391548"
            },
            "orbiting_body": "Earth"
        }
    ],
    "orbital_data": {
        "orbit_id": "6",
        "orbit_determination_date": "2017-04-06 08:41:07",
        "first_observation_date": "2014-04-23",
        "last_observation_date": "2014-04-25",
        "data_arc_in_days": 2,
        "observations_used": 23,
        "orbit_uncertainty": "9",
        "minimum_orbit_intersection": ".149889",
        "jupiter_tisserand_invariant": "3.718",
        "epoch_osculation": "2456771.5",
        "eccentricity": ".4220202959333917",
        "semi_major_axis": "1.999877547663635",
        "inclination": "6.976130954552254",
        "ascending_node_longitude": "31.55909983873476",
        "orbital_period": "1033.007640816295",
        "perihelion_distance": "1.155888633168082",
        "perihelion_argument": "184.1543941570238",
        "aphelion_distance": "2.843866462159187",
        "perihelion_time": "2456774.072616953455",
        "mean_anomaly": "359.1034508684641",
        "mean_motion": ".3484969382370914",
        "equinox": "J2000",
        "orbit_class": {
            "orbit_class_type": "AMO",
            "orbit_class_description": "Near-Earth asteroid orbits similar to that of 1221 Amor",
            "orbit_class_range": "1.017 AU < q (perihelion) < 1.3 AU"
        }
    },
    "is_sentry_object": false
}